JUPITER 3 (ECHOSTAR 24) 
1 57479U 23108A   26179.49621529  .00000000  00000+0  00000+0 0  9997
2 57479   0.0218  15.0480 0001175  78.2007 266.7647  1.00270329 10756
GALAXY 37 (G-37)        
1 57493U 23112A   26179.56530769  .00000059  00000+0  00000+0 0  9995
2 57493   0.0193  60.9976 0002265  34.0125 258.1624  1.00272397 10651
LUDI TANCE-4 01A        
1 57624U 23120A   26179.03786250 -.00000154  00000+0  00000+0 0  9997
2 57624  15.0927 193.6961 0001164   8.9657 176.6802  1.00267916 10656
TJS-10                  
1 58204U 23169A   26179.77038850 -.00000240  00000+0  00000+0 0  9998
2 58204   2.5734  80.3607 0004027 103.1261 103.1634  1.00271195  9657
ZHONGXING-6E            
1 58253U 23172A   26179.04297586 -.00000350  00000+0  00000+0 0  9991
2 58253   0.0333 266.3258 0002638 187.3561 313.4400  1.00274403  9764
YAOGAN-41               
1 58582U 23197A   26179.61488409 -.00000347  00000+0  00000+0 0  9998
2 58582   3.1080 313.3130 0014246 195.4028 112.5208  1.00275727  9438
OVZON-3                 
1 58698U 24003A   26179.60221440  .00000000  00000+0  00000+0 0  9997
2 58698   0.0163  43.7194 0000595 331.7140 177.7579  1.00277442  7562
INSAT-3DS               
1 58990U 24033A   26178.79568133 -.00000144  00000+0  00000+0 0  9997
2 58990   0.0631  99.7881 0001489 346.8209 197.8056  1.00270531 47173
MERAH PUTIH 2           
1 58995U 24035A   26179.39892465 -.00000346  00000+0  00000+0 0  9993
2 58995   0.0178  70.6185 0001466  29.6692  72.7799  1.00273261  8700
TJS-11                  
1 59020U 24037A   26179.00634385 -.00000349  00000+0  00000+0 0  9991
2 59020   4.1850 327.2161 0003552 110.5302 313.3084  1.00271188  8698
HULIANWAN GAOGUI-01 (H*)
1 59069U 24040A   26179.59708284  .00000167  00000+0  00000+0 0  9999
2 59069   0.0715 329.2749 0002977  78.0941 117.8580  1.00271363  7442
EUTELSAT 36D            
1 59346U 24059A   26179.36711508  .00000000  00000+0  00000+0 0  9991
2 59346   0.0256  28.7388 0000665  29.8880  25.8314  1.00260154  8268
PAKSAT-MM1              
1 59915U 24104A   26179.59803617  .00000165  00000+0  00000+0 0  9994
2 59915   0.0497 206.5636 0002788 226.8889  96.6945  1.00273487  7645
ASTRA 1P (SES-24)       
1 60086U 24115A   26179.30903284  .00000130  00000+0  00000+0 0  9999
2 60086   0.0609 339.8316 0000678  53.6958  13.3423  1.00257763  7304
GOES 19                 
1 60133U 24119A   26179.57553440 -.00000237  00000+0  00000+0 0  9999
2 60133   0.0131  85.1461 0000473  54.9040 268.6187  1.00273003  7079
ZHONGXING-3A            
1 60179U 24122A   26177.32930631 -.00000302  00000+0  00000+0 0  9998
2 60179   0.0422 126.7500 0001532 356.6470  11.1904  1.00272295  7401
TURKSAT 6A              
1 60233U 24127A   26179.45758980  .00000158  00000+0  00000+0 0  9993
2 60233   0.0665 211.3146 0002555 291.4158 340.5738  1.00269143  7135
HULIANWAN GAOGUI-02 (H*)
1 60327U 24135A   26177.98115155 -.00000162  00000+0  00000+0 0  9999
2 60327   0.0436 354.3395 0007487  16.2160  50.8501  1.00269273  7597
ZHONGXING-4A            
1 60606U 24151A   26179.61384409 -.00000349  00000+0  00000+0 0  9996
2 60606   1.2858 270.6756 0000634 218.0575 127.1485  1.00268369  6861
HULIANWAN GAOGUI-03 (H*)
1 61503U 24181A   26178.22067759 -.00000230  00000+0  00000+0 0  9997
2 61503   0.0467 357.7458 0001514  90.0159 189.8965  1.00274533  6926
DSN-3 (KIRAMEKI-3)      
1 61733U 24198A   26179.54751012 -.00000238  00000+0  00000+0 0  9996
2 61733   0.0080 316.6415 0001033 148.6591 152.4987  1.00273385  6031
KOREASAT 6A             
1 61910U 24206A   26179.32829072  .00000000  00000+0  00000+0 0  9997
2 61910   0.0196  39.7020 0000907  46.6465  64.2917  1.00269006  5955
OPTUS-X (ADS-01)        
1 62006U 24212A   26179.61932525 -.00000132  00000+0  00000+0 0  9998
2 62006   0.0179  21.6011 0002324 108.8051 165.6472  1.00271850  5873
GSAT-N2 (GSAT-20)       
1 62028U 24214A   26179.60294498 -.00000008  00000+0  00000+0 0  9995
2 62028   0.0627 100.6191 0002246 348.1157 112.9606  1.00272535  6013
SXM-9                   
1 62259U 24234A   26179.43098301 -.00000193  00000+0  00000+0 0  9994
2 62259   0.0158 334.8487 0005078 347.3185  24.3585  1.00268582  5686
TJS-12                  
1 62374U 24246A   26179.27961293 -.00000218  00000+0  00000+0 0  9994
2 62374   0.6467 300.2381 0002376 104.4641 118.8532  1.00274695  5672
NUVIEW ALPHA            
1 62455U 24252B   26179.50263965 -.00000204  00000+0  00000+0 0  9993
2 62455   0.0522  33.4309 0001206  30.2642 310.7601  1.00269958  3934
AGILA                   
1 62456U 24252C   26179.50183498 -.00000170  00000+0  00000+0 0  9998
2 62456   0.0620 127.6345 0001121 339.3253 142.4577  1.00272100  5271
NUVIEW BRAVO            
1 62457U 24252D   26179.28883940 -.00000203  00000+0  00000+0 0  9990
2 62457   0.0704 158.4075 0001780 335.6344 163.2195  1.00269716  3902
THURAYA-4               
1 62483U 25001A   26179.59916285  .00000151  00000+0  00000+0 0  9996
2 62483   0.0206  62.2640 0000225  11.8037 102.6305  1.00272612  4295
SHIJIAN-25 (SJ-25)      
1 62485U 25002A   26179.77608013 -.00000342  00000+0  00000+0 0  9999
2 62485   5.1395  61.0951 0051328 174.6494  87.8133  1.00277105  5475
TJS-14                  
1 62804U 25017A   26179.59404949  .00000128  00000+0  00000+0 0  9993
2 62804   0.7573 296.4105 0001148 290.1260 282.3973  1.00270025  5382
