OBJECT_NAME,OBJECT_ID,EPOCH,MEAN_MOTION,ECCENTRICITY,INCLINATION,RA_OF_ASC_NODE,ARG_OF_PERICENTER,MEAN_ANOMALY,EPHEMERIS_TYPE,CLASSIFICATION_TYPE,NORAD_CAT_ID,ELEMENT_SET_NO,REV_AT_EPOCH,BSTAR,MEAN_MOTION_DOT,MEAN_MOTION_DDOT
JUPITER 3 (ECHOSTAR 24),2023-108A,2026-06-28T11:54:33.001056,1.00270329,.00011755,0.0218,15.0480,78.2007,266.7647,0,U,57479,999,1075,0,0,0
GALAXY 37 (G-37),2023-112A,2026-06-28T13:34:02.584416,1.00272397,.00022655,0.0193,60.9976,34.0125,258.1624,0,U,57493,999,1065,0,.59E-6,0
LUDI TANCE-4 01A,2023-120A,2026-06-28T00:54:31.320000,1.00267916,.00011642,15.0927,193.6961,8.9657,176.6802,0,U,57624,999,1065,0,-.154E-5,0
TJS-10,2023-169A,2026-06-28T18:29:21.566400,1.00271195,.0004027,2.5734,80.3607,103.1261,103.1634,0,U,58204,999,965,0,-.24E-5,0
ZHONGXING-6E,2023-172A,2026-06-28T01:01:53.114304,1.00274403,.00026384,0.0333,266.3258,187.3561,313.4400,0,U,58253,999,976,0,-.35E-5,0
YAOGAN-41,2023-197A,2026-06-28T14:45:25.985376,1.00275727,.00142466,3.1080,313.3130,195.4028,112.5208,0,U,58582,999,943,0,-.347E-5,0
OVZON-3,2024-003A,2026-06-28T14:27:11.324160,1.00277442,.00005956,0.0163,43.7194,331.7140,177.7579,0,U,58698,999,756,0,0,0
INSAT-3DS,2024-033A,2026-06-27T19:05:46.866912,1.00270531,.00014893,0.0631,99.7881,346.8209,197.8056,0,U,58990,999,4717,0,-.144E-5,0
MERAH PUTIH 2,2024-035A,2026-06-28T09:34:27.089760,1.00273261,.00014668,0.0178,70.6185,29.6692,72.7799,0,U,58995,999,870,0,-.346E-5,0
TJS-11,2024-037A,2026-06-28T00:09:08.108640,1.00271188,.0003552,4.1850,327.2161,110.5302,313.3084,0,U,59020,999,869,0,-.349E-5,0
HULIANWAN GAOGUI-01 (HG-01),2024-040A,2026-06-28T14:19:47.957376,1.00271363,.00029775,0.0715,329.2749,78.0941,117.8580,0,U,59069,999,744,0,.167E-5,0
EUTELSAT 36D,2024-059A,2026-06-28T08:48:38.742912,1.00260154,.00006654,0.0256,28.7388,29.8880,25.8314,0,U,59346,999,826,0,0,0
PAKSAT-MM1,2024-104A,2026-06-28T14:21:10.325088,1.00273487,.00027885,0.0497,206.5636,226.8889,96.6945,0,U,59915,999,764,0,.165E-5,0
ASTRA 1P (SES-24),2024-115A,2026-06-28T07:25:00.437376,1.00257763,.00006789,0.0609,339.8316,53.6958,13.3423,0,U,60086,999,730,0,.13E-5,0
GOES 19,2024-119A,2026-06-28T13:48:46.172160,1.00273003,.00004734,0.0131,85.1461,54.9040,268.6187,0,U,60133,999,707,0,-.237E-5,0
ZHONGXING-3A,2024-122A,2026-06-26T07:54:12.065184,1.00272295,.0001532,0.0422,126.7500,356.6470,11.1904,0,U,60179,999,740,0,-.302E-5,0
TURKSAT 6A,2024-127A,2026-06-28T10:58:55.758720,1.00269143,.00025559,0.0665,211.3146,291.4158,340.5738,0,U,60233,999,713,0,.158E-5,0
HULIANWAN GAOGUI-02 (HG-02),2024-135A,2026-06-26T23:32:51.493920,1.00269273,.00074876,0.0436,354.3395,16.2160,50.8501,0,U,60327,999,759,0,-.162E-5,0
ZHONGXING-4A,2024-151A,2026-06-28T14:43:56.129376,1.00268369,.00006344,1.2858,270.6756,218.0575,127.1485,0,U,60606,999,686,0,-.349E-5,0
HULIANWAN GAOGUI-03 (HG-03),2024-181A,2026-06-27T05:17:46.543776,1.00274533,.0001514,0.0467,357.7458,90.0159,189.8965,0,U,61503,999,692,0,-.23E-5,0
DSN-3 (KIRAMEKI-3),2024-198A,2026-06-28T13:08:24.874368,1.00273385,.00010337,0.0080,316.6415,148.6591,152.4987,0,U,61733,999,603,0,-.238E-5,0
KOREASAT 6A,2024-206A,2026-06-28T07:52:44.318208,1.00269006,.00009073,0.0196,39.7020,46.6465,64.2917,0,U,61910,999,595,0,0,0
OPTUS-X (ADS-01),2024-212A,2026-06-28T14:51:49.701600,1.00271850,.0002324,0.0179,21.6011,108.8051,165.6472,0,U,62006,999,587,0,-.132E-5,0
GSAT-N2 (GSAT-20),2024-214A,2026-06-28T14:28:14.446272,1.00272535,.00022465,0.0627,100.6191,348.1157,112.9606,0,U,62028,999,601,0,-.8E-7,0
SXM-9,2024-234A,2026-06-28T10:20:36.932064,1.00268582,.00050782,0.0158,334.8487,347.3185,24.3585,0,U,62259,999,568,0,-.193E-5,0
TJS-12,2024-246A,2026-06-28T06:42:38.557152,1.00274695,.00023767,0.6467,300.2381,104.4641,118.8532,0,U,62374,999,567,0,-.218E-5,0
NUVIEW ALPHA,2024-252B,2026-06-28T12:03:48.065760,1.00269958,.00012065,0.0522,33.4309,30.2642,310.7601,0,U,62455,999,393,0,-.204E-5,0
AGILA,2024-252C,2026-06-28T12:02:38.542272,1.00272100,.00011212,0.0620,127.6345,339.3253,142.4577,0,U,62456,999,527,0,-.17E-5,0
NUVIEW BRAVO,2024-252D,2026-06-28T06:55:55.724160,1.00269716,.00017809,0.0704,158.4075,335.6344,163.2195,0,U,62457,999,390,0,-.203E-5,0
THURAYA-4,2025-001A,2026-06-28T14:22:47.670240,1.00272612,.00002251,0.0206,62.2640,11.8037,102.6305,0,U,62483,999,429,0,.151E-5,0
SHIJIAN-25 (SJ-25),2025-002A,2026-06-28T18:37:33.323232,1.00277105,.0051328,5.1395,61.0951,174.6494,87.8133,0,U,62485,999,547,0,-.342E-5,0
TJS-14,2025-017A,2026-06-28T14:15:25.875936,1.00270025,.00011486,0.7573,296.4105,290.1260,282.3973,0,U,62804,999,538,0,.128E-5,0
